IRIDIUM 57              
1 25273U 98019B   24247.57668049  .00001249  00000+0  42899-3 0  9990
2 25273  86.3902 265.2738 0002240  90.5056 269.6397 14.35368236383664
IRIDIUM 63              
1 25286U 98021B   24247.43065186  .00001826  00000+0  62285-3 0  9997
2 25286  86.4027 202.2605 0002564  88.8800 271.2690 14.35949895382689
IRIDIUM 69              
1 25319U 98026A   24247.61588892  .00001735  00000+0  54292-3 0  9991
2 25319  86.3994 216.3212 0000809 157.2015 202.9220 14.40199411381807
IRIDIUM 71              
1 25320U 98026B   24247.59915331  .00001953  00000+0  60810-3 0  9997
2 25320  86.4002 211.0767 0001753  28.9480 331.1817 14.40513760382328
IRIDIUM 73              
1 25344U 98032C   24247.52211132  .00002765  00000+0  69729-3 0  9991
2 25344  86.4493 168.4622 0001976  92.5082 267.6350 14.50818725389282
IRIDIUM 82              
1 25467U 98051A   24247.50737937  .00030374  00000+0  14166-2 0  9993
2 25467  86.3690 248.5060 0116286 292.1547  66.7383 15.13807516380323
